NORAD_CAT_ID,OBJECT_NAME,OBJECT_TYPE,EPOCH,MEAN_MOTION,ECCENTRICITY,INCLINATION,RA_OF_ASC_NODE,ARG_OF_PERICENTER,MEAN_ANOMALY,BSTAR,MEAN_MOTION_DOT,MEAN_MOTION_DDOT,TLE_LINE0,TLE_LINE1,TLE_LINE2,SEMIMAJOR_AXIS,PERIOD,APOGEE,PERIGEE,DECAYED
53429.0,STARLINK-4543,PAYLOAD,2024-03-31 22:00:00,15.08847911,0.0001547,53.2173,41.5527,93.4966,224.8617,0.0016636,0.00026293,0.0,0 STARLINK-4543,1 53429U 22097AT  24091.91667824  .00026293  00000-0  16636-2 0  9998,2 53429  53.2173  41.5527 0001547  93.4966 224.8617 15.08847911  5766,6917.856,95.437,540.791,538.651,0.0
53429.0,STARLINK-4543,PAYLOAD,2024-04-01 02:57:14,15.08837803,0.0001614,53.2186,40.6263,90.7276,269.3901,0.00066077,0.00010243,0.0,0 STARLINK-4543,1 53429U 22097AT  24092.12308278  .00010243  00000-0  66077-3 0  9990,2 53429  53.2186  40.6263 0001614  90.7276 269.3901 15.08837803 91489,6917.887,95.438,540.869,538.636,0.0
53429.0,STARLINK-4543,PAYLOAD,2024-04-01 14:04:56,15.08853172,0.0001759,53.2195,38.543,96.7566,263.3627,0.00078148,0.00012176,0.0,0 STARLINK-4543,1 53429U 22097AT  24092.58675958  .00012176  00000-0  78148-3 0  9991,2 53429  53.2195  38.5430 0001759  96.7566 263.3627 15.08853172 92037,6917.84,95.437,540.922,538.488,0.0
53429.0,STARLINK-4543,PAYLOAD,2024-04-02 02:48:01,15.08847203,0.0001748,53.2194,36.1659,99.9191,260.1999,0.00027881,4.153e-05,0.0,0 STARLINK-4543,1 53429U 22097AT  24093.11667947  .00004153  00000-0  27881-3 0  9994,2 53429  53.2194  36.1659 0001748  99.9191 260.1999 15.08847203 91630,6917.858,95.437,540.933,538.514,0.0
53429.0,STARLINK-4543,PAYLOAD,2024-04-02 05:58:47,15.0884993,0.0001845,53.2206,35.5703,100.4211,259.6989,0.00028522,4.255e-05,0.0,0 STARLINK-4543,1 53429U 22097AT  24093.24915814  .00004255  00000-0  28522-3 0  9993,2 53429  53.2206  35.5703 0001845 100.4211 259.6989 15.08849930 92133,6917.85,95.437,540.991,538.439,0.0
53429.0,STARLINK-4543,PAYLOAD,2024-04-02 20:17:15,15.08843534,0.000176,53.2201,32.8939,102.193,257.9259,0.00013765,1.904e-05,0.0,0 STARLINK-4543,1 53429U 22097AT  24093.84531888  .00001904  00000-0  13765-3 0  9995,2 53429  53.2201  32.8939 0001760 102.1930 257.9259 15.08843534 91743,6917.87,95.437,540.952,538.517,0.0
53429.0,STARLINK-4543,PAYLOAD,2024-04-03 02:38:48,15.08836007,0.000152,53.2184,31.7069,90.1572,269.9594,5.7815e-05,6.32e-06,0.0,0 STARLINK-4543,1 53429U 22097AT  24094.11028358  .00000632  00000-0  57815-4 0  9991,2 53429  53.2184  31.7069 0001520  90.1572 269.9594 15.08836007 91783,6917.893,95.438,540.809,538.706,0.0
53429.0,STARLINK-4543,PAYLOAD,2024-04-03 12:11:06,15.08843009,0.0001407,53.2189,29.9226,90.3882,269.7272,3.1758e-05,2.18e-06,0.0,0 STARLINK-4543,1 53429U 22097AT  24094.50771907  .00000218  00000-0  31758-4 0  9997,2 53429  53.2189  29.9226 0001407  90.3882 269.7272 15.08843009 92324,6917.871,95.437,540.71,538.763,0.0
53429.0,STARLINK-4543,PAYLOAD,2024-04-03 20:08:03,15.08831271,0.00014,53.2212,28.4375,89.3983,270.717,7.9999e-05,9.85e-06,0.0,0 STARLINK-4543,1 53429U 22097AT  24094.83892752  .00000985  00000-0  79999-4 0  9995,2 53429  53.2212  28.4375 0001400  89.3983 270.7170 15.08831271 92375,6917.907,95.438,540.741,538.804,0.0
53429.0,STARLINK-4543,PAYLOAD,2024-04-04 12:01:53,15.08846776,0.0001567,53.2213,25.4642,96.9959,263.1212,6.6243e-05,7.67e-06,0.0,0 STARLINK-4543,1 53429U 22097AT  24095.50131805  .00000767  00000-0  66243-4 0  9991,2 53429  53.2213  25.4642 0001567  96.9959 263.1212 15.08846776 91997,6917.86,95.437,540.809,538.641,0.0
53429.0,STARLINK-4543,PAYLOAD,2024-04-05 02:20:22,15.08835621,0.0001394,53.22,22.787,97.9707,262.1444,0.00012006,1.623e-05,0.0,0 STARLINK-4543,1 53429U 22097AT  24096.09748535  .00001623  00000-0  12006-3 0  9999,2 53429  53.2200  22.7870 0001394  97.9707 262.1444 15.08835621 92080,6917.894,95.438,540.723,538.794,0.0
53429.0,STARLINK-4543,PAYLOAD,2024-04-05 11:52:40,15.0884906,0.0001527,53.2209,21.0028,89.9903,270.1264,0.00016859,2.397e-05,0.0,0 STARLINK-4543,1 53429U 22097AT  24096.49491585  .00002397  00000-0  16859-3 0  9992,2 53429  53.2209  21.0028 0001527  89.9903 270.1264 15.08849060 92141,6917.853,95.437,540.774,538.661,0.0
53429.0,STARLINK-4543,PAYLOAD,2024-04-06 03:46:32,15.0883693,0.0001583,53.2195,18.0281,85.6364,274.4809,-9.0345e-06,-4.32e-06,0.0,0 STARLINK-4543,1 53429U 22097AT  24097.15732417 -.00000432  00000-0 -90345-5 0  9992,2 53429  53.2195  18.0281 0001583  85.6364 274.4809 15.08836930 92243,6917.89,95.438,540.85,538.66,0.0
53429.0,STARLINK-4543,PAYLOAD,2024-04-06 11:43:28,15.08843836,0.0001557,53.2194,16.5422,89.8952,270.2219,5.639e-05,6.1e-06,0.0,0 STARLINK-4543,1 53429U 22097AT  24097.48852073  .00000610  00000-0  56390-4 0  9996,2 53429  53.2194  16.5422 0001557  89.8952 270.2219 15.08843836 92772,6917.869,95.437,540.811,538.657,0.0
53429.0,STARLINK-4543,PAYLOAD,2024-04-06 22:51:10,15.08829396,0.0001666,53.2196,14.4592,91.1101,269.0082,-2.7555e-05,-7.26e-06,0.0,0 STARLINK-4543,1 53429U 22097AT  24097.95221038 -.00000726  00000-0 -27555-4 0  9990,2 53429  53.2196  14.4592 0001666  91.1101 269.0082 15.08829396 92849,6917.913,95.438,540.93,538.625,0.0
53429.0,STARLINK-4543,PAYLOAD,2024-04-07 11:34:15,15.08844607,0.0001405,53.2187,12.0811,92.5355,267.5798,7.977e-05,9.82e-06,0.0,0 STARLINK-4543,1 53429U 22097AT  24098.48212331  .00000982  00000-0  79770-4 0  9993,2 53429  53.2187  12.0811 0001405  92.5355 267.5798 15.08844607 92922,6917.866,95.437,540.703,538.759,0.0
53429.0,STARLINK-4543,PAYLOAD,2024-04-07 22:41:57,15.08838672,0.0001415,53.2186,10.0001,93.4849,266.6305,0.00020147,2.92e-05,0.0,0 STARLINK-4543,1 53429U 22097AT  24098.94580866  .00002920  00000-0  20147-3 0  9992,2 53429  53.2186  10.0001 0001415  93.4849 266.6305 15.08838672 92995,6917.884,95.438,540.728,538.771,0.0
53429.0,STARLINK-4543,PAYLOAD,2024-04-08 11:25:02,15.08848839,0.0001451,53.2174,7.6181,97.0647,263.051,0.0002187,3.195e-05,0.0,0 STARLINK-4543,1 53429U 22097AT  24099.47572276  .00003195  00000-0  21870-3 0  9996,2 53429  53.2174   7.6181 0001451  97.0647 263.0510 15.08848839 92590,6917.853,95.437,540.722,538.715,0.0
53429.0,STARLINK-4543,PAYLOAD,2024-04-09 00:08:08,15.08837905,0.0001158,53.2183,5.242,86.471,273.6414,0.00016064,2.27e-05,0.0,0 STARLINK-4543,1 53429U 22097AT  24100.00564896  .00002270  00000-0  16064-3 0  9999,2 53429  53.2183   5.2420 0001158  86.4710 273.6414 15.08837905 93152,6917.887,95.438,540.553,538.951,0.0
53429.0,STARLINK-4543,PAYLOAD,2024-04-09 11:15:49,15.08852618,0.0001435,53.2185,3.1594,92.6019,267.5137,0.00021468,3.131e-05,0.0,0 STARLINK-4543,1 53429U 22097AT  24100.46932021  .00003131  00000-0  21468-3 0  9999,2 53429  53.2185   3.1594 0001435  92.6019 267.5137 15.08852618 92748,6917.842,95.437,540.7,538.714,0.0
53429.0,STARLINK-4543,PAYLOAD,2024-04-09 17:37:21,15.08851047,0.0002135,53.2169,1.9684,99.6118,260.5115,0.00023741,3.493e-05,0.0,0 STARLINK-4543,1 53429U 22097AT  24100.73428239  .00003493  00000-0  23741-3 0  9997,2 53429  53.2169   1.9684 0002135  99.6118 260.5115 15.08851047 93263,6917.847,95.437,541.189,538.235,0.0
53429.0,STARLINK-4543,PAYLOAD,2024-04-10 03:09:41,15.08840977,0.0001799,53.2197,0.1846,105.4797,254.6394,7.1466e-06,-1.74e-06,0.0,0 STARLINK-4543,1 53429U 22097AT  24101.13172490 -.00000174  00000-0  71466-5 0  9990,2 53429  53.2197   0.1846 0001799 105.4797 254.6394 15.08840977 92845,6917.877,95.437,540.987,538.498,0.0
53429.0,STARLINK-4543,PAYLOAD,2024-04-10 22:14:18,15.08838417,0.0001554,53.2181,356.6161,109.4677,250.6483,6.4559e-05,7.4e-06,0.0,0 STARLINK-4543,1 53429U 22097AT  24101.92660675  .00000740  00000-0  64559-4 0  9996,2 53429  53.2181 356.6161 0001554 109.4677 250.6483 15.08838417 93445,6917.885,95.438,540.825,538.675,0.0
53429.0,STARLINK-4543,PAYLOAD,2024-04-11 09:22:00,15.08844859,0.000147,53.219,354.5376,92.3102,267.8059,8.8745e-05,1.125e-05,0.0,0 STARLINK-4543,1 53429U 22097AT  24102.39028438  .00001125  00000-0  88745-4 0  9994,2 53429  53.2190 354.5376 0001470  92.3102 267.8059 15.08844859 93031,6917.866,95.437,540.747,538.714,0.0
53429.0,STARLINK-4543,PAYLOAD,2024-04-11 20:29:43,15.08830417,0.0001661,53.2192,352.4598,96.941,263.1771,8.4692e-05,1.06e-05,0.0,0 STARLINK-4543,1 53429U 22097AT  24102.85397386  .00001060  00000-0  84692-4 0  9991,2 53429  53.2192 352.4598 0001661  96.9410 263.1771 15.08830417 93103,6917.91,95.438,540.924,538.626,0.0
53429.0,STARLINK-4543,PAYLOAD,2024-04-11 22:05:06,15.08831474,0.0001887,53.22,352.1592,107.1935,252.9264,2.0114e-05,3.2e-07,0.0,0 STARLINK-4543,1 53429U 22097AT  24102.92021330  .00000032  00000-0  20114-4 0  9999,2 53429  53.2200 352.1592 0001887 107.1935 252.9264 15.08831474 93591,6917.906,95.438,541.077,538.466,0.0
53429.0,STARLINK-4543,PAYLOAD,2024-04-12 21:55:53,15.08839893,0.0001948,53.2201,347.7045,124.9629,235.1546,0.00012959,1.775e-05,0.0,0 STARLINK-4543,1 53429U 22097AT  24103.91381149  .00001775  00000-0  12959-3 0  9998,2 53429  53.2201 347.7045 0001948 124.9629 235.1546 15.08839893 93746,6917.881,95.438,541.093,538.398,0.0
53429.0,STARLINK-4543,PAYLOAD,2024-04-13 01:06:39,15.08841215,0.0001503,53.2181,347.1051,99.192,260.9242,0.00012535,1.708e-05,0.0,0 STARLINK-4543,1 53429U 22097AT  24104.04629098  .00001708  00000-0  12535-3 0  9997,2 53429  53.2181 347.1051 0001503  99.1920 260.9242 15.08841215 93287,6917.877,95.437,540.781,538.702,0.0
53429.0,STARLINK-4543,PAYLOAD,2024-04-13 21:46:40,15.08841851,0.0001425,53.2177,343.2369,99.6573,260.458,0.00010957,1.456e-05,0.0,0 STARLINK-4543,1 53429U 22097AT  24104.90741139  .00001456  00000-0  10957-3 0  9999,2 53429  53.2177 343.2369 0001425  99.6573 260.4580 15.08841851 93896,6917.875,95.437,540.726,538.754,0.0
53429.0,STARLINK-4543,PAYLOAD,2024-04-14 20:02:04,15.08843581,0.0001366,53.2175,339.0719,91.5214,268.5935,9.9071e-05,1.289e-05,0.0,0 STARLINK-4543,1 53429U 22097AT  24105.83477134  .00001289  00000-0  99071-4 0  9992,2 53429  53.2175 339.0719 0001366  91.5214 268.5935 15.08843581 93551,6917.869,95.437,540.679,538.789,0.0
